{"type": "FeatureCollection", "features": [{"type": "Feature", "properties": {"district_id": "01", "name": "Centro"}, "geometry": {"type": "Polygon", "coordinates": [[[-3.6931615857183417, 40.407345286347514], [-3.6928350640391883, 40.407775352128], [-3.6918553962433944, 40.40843599141055], [-3.6920251864057287, 40.408697049718775], [-3.691939911799042, 40.409082066684306], [-3.6923663425835853, 40.410200785645806], [-3.6936390667401255, 40.415882477676334], [-3.6936039724041843, 40.41634467212877], [-3.692972277236595, 40.41888054029382], [-3.6930891576209994, 40.419335338652935], [-3.6904550350120977, 40.425262367413076], [-3.6913927289088275, 40.42548578032341], [-3.695761797894781, 40.427642040072925], [-3.701946605023679, 40.42897479260296], [-3.705805963792374, 40.42960556095991], [-3.7162283396820963, 40.4306476673665], [-3.7117077280551323, 40.424303816986395], [-3.7108942676317693, 40.42343412795296], [-3.713042917613724, 40.42218748228236], [-3.7155040577698233, 40.420402915732154], [-3.72018931218627, 40.42025484807895], [-3.7206994651329963, 40.41946941659593], [-3.722053178397053, 40.41845980252531], [-3.722850118962111, 40.41533165732553], [-3.72295386006238, 40.41398928970051], [-3.7169394290437237, 40.41391607059565], [-3.718338020646237, 40.41111269478575], [-3.716770459043329, 40.40869762338884], [-3.7120481794939026, 40.40674405496896], [-3.7112831748061246, 40.406561821220194], [-3.7025524445268836, 40.40506819852728], [-3.694104837242095, 40.407272605667835], [-3.6932274308515582, 40.406985699440554], [-3.6931615857183417, 40.407345286347514]]], "srid": "EPSG:4326"}}, {"type": "Feature", "properties": {"district_id": "02", "name": "Arganzuela"}, "geometry": {"type": "Polygon", "coordinates": [[[-3.7038858323876456, 40.405197485196695], [-3.7120481794939026, 40.40674405496896], [-3.716770459043329, 40.40869762338884], [-3.718338020646237, 40.41111269478575], [-3.7169394290437237, 40.41391607059565], [-3.72295386006238, 40.41398928970051], [-3.722918456511343, 40.4120130118964], [-3.7226111320082373, 40.41137889092994], [-3.721822842567634, 40.40850541176741], [-3.722742897665076, 40.40521775405742], [-3.7223977860787993, 40.40256628421052], [-3.7219487084787017, 40.401332769523385], [-3.721708181128477, 40.40094534722649], [-3.7211313158116583, 40.40051137180108], [-3.7199896966207944, 40.39994892508346], [-3.7190073006924957, 40.399830077015224], [-3.7164197764366236, 40.399984952533465], [-3.714899239190444, 40.39966795629465], [-3.713447525866053, 40.39895924980576], [-3.7108042366485807, 40.39701360536011], [-3.708228801313986, 40.396109295873615], [-3.704640740335106, 40.39523398075495], [-3.702393329986288, 40.39364474501593], [-3.698090402457381, 40.3890960497329], [-3.692151256870431, 40.38410574525237], [-3.6897460621210865, 40.38233113487353], [-3.6882207629735784, 40.38297111105967], [-3.6843109913354337, 40.38378953729854], [-3.6831498381953445, 40.38427733918723], [-3.6823475486994037, 40.3851224447829], [-3.6787179200102123, 40.39049990506506], [-3.675256652232359, 40.39326295154658], [-3.6735198532064275, 40.394314243090335], [-3.6744308176872527, 40.39657292798124], [-3.675051657012117, 40.39753814900483], [-3.6756987673152044, 40.39821789543299], [-3.6790423736563507, 40.400798365425395], [-3.6822925044840042, 40.40237036192496], [-3.684666315401871, 40.40322789356791], [-3.6866964687429586, 40.40463461581163], [-3.6886164834160096, 40.406385022110484], [-3.6918553962433944, 40.40843599141055], [-3.6928350640391883, 40.407775352128], [-3.6931615857183417, 40.407345286347514], [-3.6932274308515582, 40.406985699440554], [-3.694104837242095, 40.407272605667835], [-3.7025524445268836, 40.40506819852728], [-3.7038858323876456, 40.405197485196695]]], "srid": "EPSG:4326"}}, {"type": "Feature", "properties": {"district_id": "03", "name": "Retiro"}, "geometry": {"type": "Polygon", "coordinates": [[[-3.664094464012126, 40.40852328313204], [-3.6629167570014647, 40.41096410003141], [-3.6594420613889196, 40.416546674011464], [-3.658971308620908, 40.4174426014337], [-3.6586954771812175, 40.418674357774144], [-3.6689960374404818, 40.42119056098111], [-3.6789691562363855, 40.421674961637144], [-3.67996062135256, 40.42166283834433], [-3.688716075984749, 40.419996398430705], [-3.6930891576209994, 40.419335338652935], [-3.692972277236595, 40.41888054029382], [-3.6931664034089855, 40.4184774840816], [-3.6936390667401255, 40.415882477676334], [-3.6923663425835853, 40.410200785645806], [-3.691939911799042, 40.409082066684306], [-3.6920251864057287, 40.408697049718775], [-3.6918553962433944, 40.40843599141055], [-3.6886164834160096, 40.406385022110484], [-3.6866964687429586, 40.40463461581163], [-3.684666315401871, 40.40322789356791], [-3.6822925044840042, 40.40237036192496], [-3.6790423736563507, 40.400798365425395], [-3.6756987673152044, 40.39821789543299], [-3.675051657012117, 40.39753814900483], [-3.6744308176872527, 40.39657292798124], [-3.6735198532064275, 40.394314243090335], [-3.6720434307958474, 40.395308502201516], [-3.6696266964566386, 40.39782990690773], [-3.6682764659234413, 40.39963528686472], [-3.664094464012126, 40.40852328313204]]], "srid": "EPSG:4326"}}, {"type": "Feature", "properties": {"district_id": "04", "name": "Salamanca"}, "geometry": {"type": "Polygon", "coordinates": [[[-3.6593992866215994, 40.43827304816264], [-3.659231465640251, 40.44050301817204], [-3.659354247178918, 40.44213673668363], [-3.659751628258368, 40.44328429553937], [-3.660601525931759, 40.44460630292807], [-3.665276452907993, 40.442842417682975], [-3.6704886051684373, 40.439863628656944], [-3.671826530639652, 40.43939317229541], [-3.675140863549053, 40.43869777907642], [-3.6774250838149105, 40.43741270151535], [-3.690717509452989, 40.43798455713031], [-3.688757681422566, 40.43517376866077], [-3.688413135162273, 40.4330536506363], [-3.69072044610712, 40.4244660726006], [-3.6930891576209994, 40.419335338652935], [-3.688716075984749, 40.419996398430705], [-3.67996062135256, 40.42166283834433], [-3.6789691562363855, 40.421674961637144], [-3.6689960374404818, 40.42119056098111], [-3.6586954771812175, 40.418674357774144], [-3.6605890408694473, 40.429457951320295], [-3.6608099648592356, 40.431421563651654], [-3.659903757530687, 40.4351188144305], [-3.6593992866215994, 40.43827304816264]]], "srid": "EPSG:4326"}}, {"type": "Feature", "properties": {"district_id": "05", "name": "Chamartín"}, "geometry": {"type": "Polygon", "coordinates": [[[-3.6736481878540515, 40.48245550206311], [-3.6734614062992077, 40.48405565655839], [-3.678993792892618, 40.48377244311484], [-3.683942729309487, 40.482399533879914], [-3.685228382111206, 40.482293282317755], [-3.6850787366099658, 40.48169687261157], [-3.685256788352389, 40.480759384582115], [-3.689344448398767, 40.46603806311682], [-3.691785834694524, 40.441259233727926], [-3.690717509452989, 40.43798455713031], [-3.6774250838149105, 40.43741270151535], [-3.675140863549053, 40.43869777907642], [-3.671826530639652, 40.43939317229541], [-3.6704886051684373, 40.439863628656944], [-3.665276452907993, 40.442842417682975], [-3.660601525931759, 40.44460630292807], [-3.661476432161482, 40.446383386767536], [-3.6623373237106476, 40.44910712439446], [-3.663806177830872, 40.456816028874094], [-3.6649372738984725, 40.46003035434736], [-3.6684065554547223, 40.46670425777772], [-3.673248421828635, 40.47306241646983], [-3.6737432490236643, 40.47413259980527], [-3.6743329495969252, 40.47611213593623], [-3.674438393656591, 40.47778512214141], [-3.6736481878540515, 40.48245550206311]]], "srid": "EPSG:4326"}}, {"type": "Feature", "properties": {"district_id": "06", "name": "Tetuán"}, "geometry": {"type": "Polygon", "coordinates": [[[-3.6976364728128406, 40.47453854892683], [-3.699440774561666, 40.474966397330874], [-3.7005131121809, 40.474885407960016], [-3.7013431797707916, 40.47444560732627], [-3.703748109418841, 40.472252094858305], [-3.704385712938937, 40.47194695585242], [-3.711391606256216, 40.471135639516724], [-3.7123704242784497, 40.47042754918096], [-3.7132776130726897, 40.4685141272078], [-3.711389430888565, 40.466264850499535], [-3.710922179233579, 40.46600447800713], [-3.7098007778129176, 40.46482676749779], [-3.708474471640171, 40.462407327133896], [-3.7090323197896953, 40.46129147875198], [-3.7128669126488045, 40.455466393132355], [-3.713126475416968, 40.45489578398339], [-3.7126777793780295, 40.45391746685497], [-3.7132717276594924, 40.45303903203619], [-3.711729650119095, 40.452289965368934], [-3.7083074601116692, 40.44709049832885], [-3.6912585727452827, 40.44621494493524], [-3.689344448398767, 40.46603806311682], [-3.687122484293111, 40.47415225513115], [-3.6888625243136604, 40.47442902834537], [-3.689229831275163, 40.4746895443118], [-3.6909920744997864, 40.47444822713313], [-3.6923377067384737, 40.4747193746585], [-3.6940302951374258, 40.474542751443664], [-3.696001395865996, 40.47478866287363], [-3.6976364728128406, 40.47453854892683]]], "srid": "EPSG:4326"}}, {"type": "Feature", "properties": {"district_id": "07", "name": "Chamberí"}, "geometry": {"type": "Polygon", "coordinates": [[[-3.6912585727452827, 40.44621494493524], [-3.7092085978067937, 40.4471335388813], [-3.7147513607277736, 40.445771694305535], [-3.7172704499044493, 40.44667971736824], [-3.718190943727615, 40.44666896428568], [-3.7199257914000405, 40.44494340930051], [-3.7197890782800993, 40.443755607542535], [-3.7191653309661605, 40.44285047380674], [-3.7176174811227103, 40.439856472389096], [-3.7184062564789526, 40.434777785596026], [-3.7172333776280917, 40.43310100022324], [-3.717958765810457, 40.43299794434459], [-3.7162283396820963, 40.4306476673665], [-3.705805963792374, 40.42960556095991], [-3.701946605023679, 40.42897479260296], [-3.695761797894781, 40.427642040072925], [-3.6913927289088275, 40.42548578032341], [-3.6904550350120977, 40.425262367413076], [-3.688413135162273, 40.4330536506363], [-3.688757681422566, 40.43517376866077], [-3.690717509452989, 40.43798455713031], [-3.691785834694524, 40.441259233727926], [-3.6912585727452827, 40.44621494493524]]], "srid": "EPSG:4326"}}, {"type": "Feature", "properties": {"district_id": "08", "name": "Fuencarral - El Pardo"}, "geometry": {"type": "Polygon", "coordinates": [[[-3.657614717449878, 40.51171834398803], [-3.6578848186811506, 40.51146057876075], [-3.6585987237598947, 40.51166877111363], [-3.6591582685089294, 40.513593141105325], [-3.6614671674965806, 40.51726625013211], [-3.6628702103363264, 40.52003297674745], [-3.6662394653665653, 40.521125160249525], [-3.6656204474963956, 40.52295786783156], [-3.6659453929514756, 40.52392298090217], [-3.665943929013117, 40.52447609183407], [-3.667651084481212, 40.52500770871215], [-3.6720289154789767, 40.524366254914455], [-3.675066617907107, 40.52557541373519], [-3.67558196148265, 40.52611807704256], [-3.677206649685904, 40.526992268333245], [-3.6765279695087347, 40.52724497287703], [-3.675723792748558, 40.52838110104038], [-3.67233715458057, 40.53086917485326], [-3.6710148719534774, 40.53206305196403], [-3.6693236819674895, 40.534379681258564], [-3.670223021240031, 40.53502416435099], [-3.6720574570693048, 40.53737185299918], [-3.6732942353714133, 40.53769910484692], [-3.6740840964183152, 40.53818838874973], [-3.6748002379667484, 40.539605006121974], [-3.6756241432944012, 40.54078219339591], [-3.6774486438986886, 40.542336003665596], [-3.6781685745413117, 40.543396352150985], [-3.6787400695699146, 40.54538181322484], [-3.6786051281608763, 40.54651052844788], [-3.6787959405776833, 40.54688726302283], [-3.6802383890481103, 40.54873426677319], [-3.681138899583453, 40.549206029173696], [-3.6819001078469693, 40.549989694759795], [-3.682477404812621, 40.55132482162604], [-3.6821207253273225, 40.55290602825604], [-3.6824083893512083, 40.55383111372373], [-3.6857513356257523, 40.559646576169065], [-3.686968767503707, 40.56314884534053], [-3.6889554956042145, 40.56716530098678], [-3.689560751093506, 40.56869066475211], [-3.6895905817643784, 40.56985776203416], [-3.68939654746214, 40.57035806140011], [-3.690406540196819, 40.569834677948194], [-3.690725218571913, 40.56917280274715], [-3.6911710154064727, 40.56965480950893], [-3.691717535060038, 40.569870058747796], [-3.692392122083936, 40.570705921380345], [-3.6926303371384184, 40.57158219898956], [-3.6935146364627767, 40.57207223106073], [-3.6949517805622194, 40.57368975920216], [-3.696263324058378, 40.5742706958296], [-3.6970119108579165, 40.574816447130736], [-3.6972439729026845, 40.57529851297013], [-3.697300393354873, 40.576009780200174], [-3.698194633650357, 40.57689388319255], [-3.7000274227671173, 40.57820492643588], [-3.7015907467963496, 40.57831459326757], [-3.7015887047875613, 40.57863982403563], [-3.6994277176048014, 40.57863741828635], [-3.6958479243844202, 40.5796565754944], [-3.6933930238761516, 40.580036332389966], [-3.691842555124564, 40.580469003507815], [-3.690694399101555, 40.58097623181065], [-3.688602925591718, 40.58261265066677], [-3.6872490746865614, 40.582581418852364], [-3.6858584997168062, 40.58291632365505], [-3.684277921544668, 40.58365693577146], [-3.6821914791043073, 40.584945315171396], [-3.6671903110400024, 40.592118879094734], [-3.663735113491329, 40.59232786699108], [-3.6623452727370394, 40.592184527173465], [-3.6603192229960517, 40.59167112314895], [-3.6589694253292184, 40.59050752534039], [-3.656303960750001, 40.588997121824065], [-3.655285127445983, 40.58768786392808], [-3.654508911098208, 40.5860935127071], [-3.6527268609443904, 40.58108578021966], [-3.6509194510683685, 40.577968491500854], [-3.6503173410455574, 40.57742369124666], [-3.649594730866362, 40.57718523533088], [-3.6475521752456013, 40.576963901228076], [-3.644788494878979, 40.57686670169515], [-3.6426472959390406, 40.576420981264185], [-3.641559236220471, 40.575811713671804], [-3.6397271463088976, 40.57510745338818], [-3.6346579867341053, 40.574465683702456], [-3.63245325934832, 40.574500549701405], [-3.631123746637865, 40.57486280274122], [-3.628726821098305, 40.57375424526808], [-3.6279834019983754, 40.57359702299316], [-3.625009715129084, 40.573614751074054], [-3.622232237936704, 40.575678224234416], [-3.6163682304621685, 40.580492398337014], [-3.6119088125063774, 40.58190112932392], [-3.609049027521196, 40.58356127386472], [-3.6087896530457, 40.58393360599164], [-3.6084193410876844, 40.58391744213538], [-3.606423737058004, 40.585116597237246], [-3.6050072136963975, 40.58776818341657], [-3.6042251577282127, 40.58839295034052], [-3.602980037792029, 40.589009434865986], [-3.602539566248064, 40.58966351948303], [-3.6019159466647164, 40.591000919660424], [-3.6017808465871637, 40.592098889320006], [-3.6018504020983433, 40.59239147690343], [-3.6033698376380543, 40.59302981600121], [-3.6047701628672053, 40.59429581600326], [-3.604730232723894, 40.5957905671153], [-3.605211794441788, 40.596459939652895], [-3.6069311078321507, 40.5968374260392], [-3.6087429097735533, 40.59845430978109], [-3.6105776580085758, 40.59876535911787], [-3.611632397689984, 40.5994687838202], [-3.6129565946672426, 40.59990861615248], [-3.6142758923412948, 40.60058629120455], [-3.615307366135994, 40.6007148759734], [-3.6163650193602255, 40.60152253711814], [-3.6164855340498705, 40.602071807110825], [-3.6160968154952826, 40.603048145739315], [-3.6171107925842816, 40.605161200884176], [-3.6171602044907214, 40.606036593490984], [-3.6167999476979076, 40.60697141797529], [-3.6183914040022884, 40.60895933489179], [-3.6178198936238233, 40.61017290900315], [-3.6180110347772567, 40.61126498864835], [-3.6198725981514386, 40.611904282453615], [-3.620483805104141, 40.612563477093374], [-3.6217745402052794, 40.61492294730799], [-3.6226008780899663, 40.615908762822215], [-3.6239157186131163, 40.61650100735199], [-3.6269393542077037, 40.616905723501176], [-3.628282176837456, 40.61764500888499], [-3.628597898852056, 40.618125304292434], [-3.628656830129454, 40.6194138657486], [-3.629493214908137, 40.6205762494772], [-3.628851708117073, 40.62233903392115], [-3.6302118725101136, 40.62581169024143], [-3.6296539577640305, 40.626809676748486], [-3.629703319235124, 40.62735202740609], [-3.630146039142375, 40.6282848763445], [-3.6329294975132647, 40.63069250910333], [-3.6345824886140425, 40.63346463105787], [-3.6361841336651803, 40.635069885346155], [-3.636701844037922, 40.636778447332844], [-3.637628374929159, 40.637695975122035], [-3.6388240168200885, 40.63840257488977], [-3.6401097113987113, 40.638443551121355], [-3.6424513498747455, 40.63804523743918], [-3.644479259592966, 40.638090433189035], [-3.6468609380437846, 40.639804116513744], [-3.6487558353630636, 40.641400800492505], [-3.6522137989913452, 40.642657585775986], [-3.6559452395174796, 40.64322871786903], [-3.656138827828071, 40.64293489812771], [-3.658479507841092, 40.642054333376485], [-3.6616742902541706, 40.6394915365003], [-3.6623938674341074, 40.63787484084094], [-3.6643078292758924, 40.63570780962002], [-3.6657582488456604, 40.633769654461844], [-3.6673027060048193, 40.631165949431534], [-3.668349159034333, 40.628891765131485], [-3.668558995581529, 40.627363460499055], [-3.6685205878892, 40.62591651063916], [-3.666974240843171, 40.62253509676734], [-3.666552007065897, 40.6200639692115], [-3.6668354073988434, 40.6195812664823], [-3.671212866300526, 40.61747223065446], [-3.674655915390797, 40.61641037196453], [-3.6792240145739354, 40.611174757758754], [-3.6796679611524175, 40.61086728005494], [-3.685083234374991, 40.60866100534287], [-3.6874173773308674, 40.60680911665353], [-3.6905752884747263, 40.601431375512945], [-3.69200993930104, 40.59739313065634], [-3.6963315648836557, 40.589879454697964], [-3.701958577518245, 40.58695138047676], [-3.7047825450535226, 40.584944158251005], [-3.7053853031186192, 40.5846968778954], [-3.7053968272909836, 40.58298017820365], [-3.7076316074162503, 40.58314976710438], [-3.707885432335571, 40.58375693995669], [-3.7114936123320423, 40.58304984746759], [-3.713000000587731, 40.58329418427204], [-3.7145384879691314, 40.58265714386325], [-3.7172519267295656, 40.58289772248664], [-3.719420165730573, 40.58212481380433], [-3.720662487890272, 40.58221901594456], [-3.721431436246309, 40.582600355867626], [-3.729809020689212, 40.58509013562659], [-3.732294858241414, 40.585387201229445], [-3.7331572917936193, 40.585266455117996], [-3.7372688012440447, 40.58606998643863], [-3.7381735051471883, 40.58647051388346], [-3.7385652185816607, 40.586942775725014], [-3.739686139521886, 40.58930144239941], [-3.7408168404839364, 40.59064630622431], [-3.745394587120641, 40.591886222459856], [-3.7458100200179842, 40.59220393913742], [-3.749257884512983, 40.59271142120748], [-3.7501481083908277, 40.592438776685064], [-3.752195565553848, 40.59434315515523], [-3.752953721415256, 40.594765637463496], [-3.753641568843098, 40.59475916772172], [-3.7573715865554393, 40.59606188498087], [-3.7584618203988556, 40.596091868691076], [-3.7598515986654166, 40.59700948847846], [-3.764208028520316, 40.59832259767487], [-3.765240796628529, 40.59839788714871], [-3.76816921245872, 40.599660814656545], [-3.7724724124443796, 40.600179197637026], [-3.7743187107412806, 40.60054724041881], [-3.778262768677787, 40.60173169963149], [-3.7789346043237995, 40.60174448367819], [-3.7797873153137402, 40.60116899224439], [-3.781633585020691, 40.6008099546664], [-3.782263175976365, 40.6014604299098], [-3.782802725417218, 40.60171372773809], [-3.7834835149204884, 40.60176812515447], [-3.7850244614441344, 40.6004794525057], [-3.786321792818702, 40.600383746474066], [-3.789055943160215, 40.59910000365595], [-3.7899120163350988, 40.59899005891526], [-3.7941342122014228, 40.59977238390987], [-3.796037934061641, 40.599901583620486], [-3.7972401156598843, 40.59970226890236], [-3.799118805568849, 40.59849026802567], [-3.8011117544523367, 40.598888141388215], [-3.8033552446708585, 40.59888167292646], [-3.8034987515569103, 40.59905175136845], [-3.8003173316074976, 40.604834008378816], [-3.800529950065076, 40.605900971894854], [-3.804855473989987, 40.60718694745139], [-3.8061254138589025, 40.60791604949506], [-3.8064506582771678, 40.608641437114365], [-3.806079294737566, 40.60925692030258], [-3.806201026072525, 40.609510846039065], [-3.807379150717842, 40.60919918294354], [-3.808225133990615, 40.60916804689851], [-3.8091760747342556, 40.60931274101186], [-3.809419255854998, 40.60987408415105], [-3.8096077675207067, 40.60986916476758], [-3.8099482134399985, 40.609439017121595], [-3.810817361797393, 40.6093848571375], [-3.8114492810493665, 40.60871715268361], [-3.812402412936863, 40.608471451051805], [-3.8128244614882525, 40.60828267325572], [-3.8127951234702904, 40.608161932356325], [-3.8113733623739168, 40.60721249221759], [-3.8106763059957456, 40.60701484410039], [-3.8101416094588996, 40.606650205253395], [-3.8093773337928676, 40.605025398482404], [-3.8060079751408824, 40.59986719639767], [-3.8125268860269212, 40.59690491276293], [-3.813925769063636, 40.596137294175996], [-3.8144367107637, 40.59541659664114], [-3.8161348129015242, 40.595010202786675], [-3.8202874530327433, 40.595011445312885], [-3.8227481767647373, 40.59439501235712], [-3.826399097392073, 40.594741432449794], [-3.827550417562784, 40.59469389318645], [-3.8301806925858086, 40.594036247818096], [-3.8319462097003925, 40.593851500480795], [-3.8332709028434815, 40.59352806481141], [-3.8354016941827123, 40.5921154572116], [-3.83668667979328, 40.591570909787556], [-3.8376963468817293, 40.591357348453116], [-3.840550600414983, 40.59241159630809], [-3.8416915840763615, 40.59267129796991], [-3.8434082442326263, 40.59237648096489], [-3.84463754676172, 40.59193470267606], [-3.845657886865782, 40.591360905951156], [-3.848758357881758, 40.59095921693229], [-3.8502377484443757, 40.590439687636575], [-3.853705172145721, 40.58883747741464], [-3.854968578497967, 40.587998516220814], [-3.8554095560975936, 40.588214975081414], [-3.8585003970734832, 40.58790464825942], [-3.859926774167544, 40.588185405361926], [-3.861305295337374, 40.588898429489255], [-3.8635343266200057, 40.58950241998716], [-3.864902084865669, 40.59041170206491], [-3.8659669458647317, 40.59178775917983], [-3.8673768666111004, 40.59216312966924], [-3.8689229346763234, 40.592001089647006], [-3.8718384492884357, 40.591367411656236], [-3.8738996700559696, 40.59115170538734], [-3.8759029747049105, 40.590176109113216], [-3.876174003109511, 40.5899803895135], [-3.876110445060342, 40.58926925315936], [-3.8768469112121147, 40.5886253537225], [-3.878314283395029, 40.58805228436031], [-3.880342300767235, 40.58685920571179], [-3.8836859304651923, 40.585276705404496], [-3.8838110495462144, 40.583380613624826], [-3.883433494414968, 40.582531376417876], [-3.884179189004258, 40.581281472845916], [-3.8837763351369556, 40.58031877595506], [-3.8837315789499045, 40.57909560396463], [-3.885750898803799, 40.57412807474774], [-3.8884092791178566, 40.57222405166977], [-3.8889634158909274, 40.57085883808563], [-3.8880253191213026, 40.56901056666697], [-3.887893908779335, 40.56828722228708], [-3.8870832032236677, 40.56645600032792], [-3.8838197227163564, 40.56383732072106], [-3.8839024001013884, 40.56314677786288], [-3.8849318254944567, 40.561744979939625], [-3.884987570851836, 40.56102863051343], [-3.8848161465534896, 40.560842635315204], [-3.882093668189141, 40.55963673872954], [-3.8789390658132183, 40.559574323229924], [-3.8754249129795837, 40.558798352637844], [-3.875120006879141, 40.55811882890338], [-3.8738328369870785, 40.55756946025315], [-3.872959602912718, 40.55522937841653], [-3.8730765615177094, 40.5546920293957], [-3.8728010344935924, 40.55340884939877], [-3.8721609090803613, 40.55227113132078], [-3.8707642850057087, 40.55112513665531], [-3.869072609195452, 40.5482072594933], [-3.8694446290719284, 40.54741498007109], [-3.8673590149995487, 40.545544016741474], [-3.865670360006991, 40.54340289535203], [-3.8655043535684013, 40.542386914770766], [-3.865014812312225, 40.54183510145218], [-3.864267878373936, 40.539627051512205], [-3.8638761839759432, 40.53923856660239], [-3.8638674205149584, 40.537546775698154], [-3.8630093982819025, 40.53466503985621], [-3.861358631309842, 40.53332997747171], [-3.8606108171014366, 40.53290886487344], [-3.8595364840206, 40.5312805285023], [-3.8581219876216757, 40.530122624513346], [-3.8583482660899793, 40.52978036184938], [-3.8582763412219756, 40.52934303883359], [-3.8577289327862747, 40.52788030514302], [-3.8561317872670635, 40.52692997321668], [-3.8550520168742533, 40.525630921944924], [-3.8547678503564016, 40.52551877727207], [-3.853696409017651, 40.52441775085307], [-3.854369256414065, 40.52257220215101], [-3.854376362820486, 40.52135399728296], [-3.85333128663715, 40.5195129940933], [-3.851739736211248, 40.518277003178554], [-3.851288221211737, 40.51764672369148], [-3.8518791409278004, 40.516731547279605], [-3.852224312357094, 40.51547114013621], [-3.853350720700087, 40.51453525610617], [-3.854012504648137, 40.51199723341523], [-3.8525429296982936, 40.50978748268015], [-3.8497132199717945, 40.50882539463645], [-3.849166247458409, 40.50903123077841], [-3.8371088984438093, 40.50589217340959], [-3.8378688636096085, 40.503969679876825], [-3.8386410822360286, 40.502818682304564], [-3.8394017854543074, 40.49938510151126], [-3.8344282496539135, 40.494066190025016], [-3.8341912058792262, 40.49193867565302], [-3.833434202397789, 40.48983971238626], [-3.8331735892519863, 40.48783934364238], [-3.8333118634138637, 40.485976381898105], [-3.835083057634062, 40.482559047750556], [-3.8360132137163756, 40.48205889403606], [-3.8362495664482354, 40.48171260367404], [-3.836347099519607, 40.481195608765674], [-3.836667740591231, 40.48086378482016], [-3.8364658269913465, 40.48059007673073], [-3.836650188114215, 40.479581349925596], [-3.800179397811468, 40.46920165785497], [-3.7976447180762944, 40.469475914363024], [-3.794592118666594, 40.47009610290669], [-3.7922647299314467, 40.47084881387475], [-3.7899055175902965, 40.47196061215942], [-3.7832282119311733, 40.47380770116746], [-3.7809665332891096, 40.474633523488414], [-3.7710623592934294, 40.47449723718674], [-3.768555012807335, 40.47427797174076], [-3.7664731146451604, 40.474082681450994], [-3.7635495620510224, 40.47339074981609], [-3.7635948772175203, 40.47251694033355], [-3.7634136761726866, 40.47242273087087], [-3.759961522365858, 40.472276263415345], [-3.7588948894849508, 40.47263380241814], [-3.7582881720399324, 40.47256940126308], [-3.758290755480921, 40.47353352540041], [-3.7591890224510878, 40.474104660896714], [-3.758572251084189, 40.47414393009387], [-3.75820362532332, 40.47450301087455], [-3.7578024334324196, 40.478368054610655], [-3.7574732403582485, 40.47913110768722], [-3.7575747421641945, 40.47971224173427], [-3.7571846514318104, 40.47978101096463], [-3.7565118970595037, 40.47971450993409], [-3.75613362865269, 40.47944896606835], [-3.7555185557173183, 40.47971802663021], [-3.754245288158485, 40.47937696407144], [-3.7544845180250244, 40.478520274026124], [-3.7544491712675048, 40.47806050691723], [-3.7515103536342314, 40.478459176166446], [-3.751787115413715, 40.47617270429726], [-3.7516271433837267, 40.474542668586594], [-3.751346720458378, 40.47313359286574], [-3.7503158741942655, 40.47011794849099], [-3.75068966197948, 40.47184236569173], [-3.7503748851437737, 40.473004493875806], [-3.7498463743584414, 40.47360755719192], [-3.7491908151720503, 40.47404189161024], [-3.747468089671848, 40.47447591260166], [-3.740833223520952, 40.47430226944242], [-3.7356670806809498, 40.473109732226284], [-3.7332074448401484, 40.472706332997014], [-3.730387410872403, 40.472658669571416], [-3.7280011412326495, 40.47296045950015], [-3.7145402927123463, 40.46963192187506], [-3.714209797408004, 40.46947891767992], [-3.7132776130726897, 40.4685141272078], [-3.712874459482772, 40.469164447783704], [-3.7125082753885428, 40.470222106057534], [-3.7116643924381054, 40.47101765640351], [-3.710711702190729, 40.47130729424042], [-3.704385712938937, 40.47194695585242], [-3.703748109418841, 40.472252094858305], [-3.701160421060859, 40.47457941626509], [-3.700286120927568, 40.47494065524563], [-3.6992288066361256, 40.47493461521716], [-3.6978153458658585, 40.47454152494749], [-3.696001395865996, 40.47478866287363], [-3.6940302951374258, 40.474542751443664], [-3.6923377067384737, 40.4747193746585], [-3.6909920744997864, 40.47444822713313], [-3.689229831275163, 40.4746895443118], [-3.6888625243136604, 40.47442902834537], [-3.687122484293111, 40.47415225513115], [-3.685141404076847, 40.48123660241801], [-3.6850787366099658, 40.48169687261157], [-3.685228382111206, 40.482293282317755], [-3.683942729309487, 40.482399533879914], [-3.678993792892618, 40.48377244311484], [-3.6734614062992077, 40.48405565655839], [-3.672892978684012, 40.48876471032104], [-3.6724649318671543, 40.49006998456582], [-3.6718052822899643, 40.49124966487762], [-3.670651133688472, 40.492507522088616], [-3.6622671641727247, 40.49937160653619], [-3.6595755485569184, 40.50248776874185], [-3.658734201155973, 40.503672552788174], [-3.658327759030529, 40.50460531029809], [-3.65816329191877, 40.505493447357495], [-3.658266543914667, 40.50975688911136], [-3.6580111100425126, 40.51086761301098], [-3.657614717449878, 40.51171834398803]]], "srid": "EPSG:4326"}}, {"type": "Feature", "properties": {"district_id": "09", "name": "Moncloa - Aravaca"}, "geometry": {"type": "Polygon", "coordinates": [[[-3.774600529205487, 40.40031394770017], [-3.7736929232416196, 40.400282542252455], [-3.7706469656902333, 40.399534473328394], [-3.7692808074373145, 40.39962229894846], [-3.767010634719782, 40.39923645803786], [-3.765625293531893, 40.39927436658687], [-3.7655033960619804, 40.39910309902736], [-3.764358797267947, 40.399401475171445], [-3.7622749689857464, 40.40099153330564], [-3.7597552573854154, 40.40406010292764], [-3.7570580066082973, 40.40561832427196], [-3.755689041812485, 40.40589997260355], [-3.750879463824307, 40.40830560960118], [-3.744667208291604, 40.409143848536885], [-3.743328791604697, 40.40956758862599], [-3.741853510909682, 40.40920596793532], [-3.737919421777519, 40.41146599540369], [-3.7223791480532804, 40.417174968887274], [-3.722053178397053, 40.41845980252531], [-3.7206994651329963, 40.41946941659593], [-3.72018931218627, 40.42025484807895], [-3.7155040577698233, 40.420402915732154], [-3.713042917613724, 40.42218748228236], [-3.7108942676317693, 40.42343412795296], [-3.7117077280551323, 40.424303816986395], [-3.717958765810457, 40.43299794434459], [-3.7172333776280917, 40.43310100022324], [-3.7184062564789526, 40.434777785596026], [-3.7176174811227103, 40.439856472389096], [-3.7191653309661605, 40.44285047380674], [-3.7197890782800993, 40.443755607542535], [-3.7199257914000405, 40.44494340930051], [-3.718190943727615, 40.44666896428568], [-3.7172704499044493, 40.44667971736824], [-3.7147513607277736, 40.445771694305535], [-3.7092085978067937, 40.4471335388813], [-3.7083074601116692, 40.44709049832885], [-3.711729650119095, 40.452289965368934], [-3.7132717276594924, 40.45303903203619], [-3.7126777793780295, 40.45391746685497], [-3.713126475416968, 40.45489578398339], [-3.7128669126488045, 40.455466393132355], [-3.708483621647198, 40.462301415642926], [-3.7092690068843335, 40.46403759495035], [-3.7098007778129176, 40.46482676749779], [-3.710922179233579, 40.46600447800713], [-3.711389430888565, 40.466264850499535], [-3.714035428256873, 40.469320713927495], [-3.7145402927123463, 40.46963192187506], [-3.7280011412326495, 40.47296045950015], [-3.730387410872403, 40.472658669571416], [-3.7332074448401484, 40.472706332997014], [-3.7356670806809498, 40.473109732226284], [-3.740833223520952, 40.47430226944242], [-3.747468089671848, 40.47447591260166], [-3.7491908151720503, 40.47404189161024], [-3.7498463743584414, 40.47360755719192], [-3.7503748851437737, 40.473004493875806], [-3.75068966197948, 40.47184236569173], [-3.7503158741942655, 40.47011794849099], [-3.751346720458378, 40.47313359286574], [-3.7516271433837267, 40.474542668586594], [-3.751787115413715, 40.47617270429726], [-3.7515103536342314, 40.478459176166446], [-3.7544491712675048, 40.47806050691723], [-3.7544845180250244, 40.478520274026124], [-3.754245288158485, 40.47937696407144], [-3.75511701425025, 40.47968109801021], [-3.755833172634067, 40.47968363019605], [-3.756054548122861, 40.479445878938996], [-3.7565637159070233, 40.47972732467354], [-3.7575747421641945, 40.47971224173427], [-3.75745290712798, 40.47930601417301], [-3.7578024334324196, 40.478368054610655], [-3.7581545664713105, 40.4746514405026], [-3.758456351524628, 40.47420198664746], [-3.7591890224510878, 40.474104660896714], [-3.758290755480921, 40.47353352540041], [-3.7582881720399324, 40.47256940126308], [-3.7588948894849508, 40.47263380241814], [-3.759961522365858, 40.472276263415345], [-3.7634136761726866, 40.47242273087087], [-3.7635948772175203, 40.47251694033355], [-3.7635495620510224, 40.47339074981609], [-3.7664731146451604, 40.474082681450994], [-3.768555012807335, 40.47427797174076], [-3.7710623592934294, 40.47449723718674], [-3.7809665332891096, 40.474633523488414], [-3.7832282119311733, 40.47380770116746], [-3.7899055175902965, 40.47196061215942], [-3.7922647299314467, 40.47084881387475], [-3.794592118666594, 40.47009610290669], [-3.7976447180762944, 40.469475914363024], [-3.800179397811468, 40.46920165785497], [-3.836650188114215, 40.479581349925596], [-3.837398249229299, 40.47574450135829], [-3.8367258256724948, 40.47512327394326], [-3.8361149612747054, 40.474893999133826], [-3.8373831531321243, 40.47296178225104], [-3.8381337565577014, 40.470924644496755], [-3.838256944704568, 40.467767465665396], [-3.8369153727623324, 40.466975740651925], [-3.8343527259606245, 40.46441732686342], [-3.830784791584118, 40.465891909298584], [-3.828922055240138, 40.46635301416634], [-3.8271246830668284, 40.46608659929036], [-3.8248500525869735, 40.46479563752094], [-3.823662276572127, 40.46460319883399], [-3.8222338492588013, 40.46469804315169], [-3.820944447895288, 40.464392785977175], [-3.817454313861337, 40.464301279989726], [-3.8152111691581263, 40.463643235502104], [-3.812867444518561, 40.46363990511595], [-3.8101239115895376, 40.464229414423876], [-3.8073876219666927, 40.46345755165973], [-3.8042067044734074, 40.46298060697592], [-3.802547055585215, 40.462080422413976], [-3.80058893981532, 40.46027687636864], [-3.798850083533993, 40.458952861630486], [-3.7957548879800105, 40.45782103930109], [-3.7952779443079807, 40.45698107686828], [-3.795488155573023, 40.45660485803288], [-3.7953359766071753, 40.456301400878395], [-3.7943930965524184, 40.455652923056164], [-3.7940584347931465, 40.45497504114981], [-3.792913987688492, 40.45383063847799], [-3.793372932819991, 40.45324461079292], [-3.7924229571082013, 40.45168535575885], [-3.7920781885744197, 40.45064537480901], [-3.791381388114527, 40.449351045087106], [-3.790992686853078, 40.44747802823137], [-3.790393347612539, 40.44765419367855], [-3.790178802732999, 40.445847552489674], [-3.7888548650610514, 40.445771898887436], [-3.7900965230024006, 40.44234451127995], [-3.7872418997992017, 40.44315765597766], [-3.784568860571072, 40.44438211346053], [-3.7794582588535377, 40.44416979649291], [-3.778585766104793, 40.44376846066473], [-3.7775279535740394, 40.44365665300155], [-3.7708466515851233, 40.44405089180569], [-3.770942550008604, 40.42931959876817], [-3.779130729108327, 40.42427106518493], [-3.7803765744693623, 40.42191041228138], [-3.7813993194497533, 40.41759358463398], [-3.7806221650478764, 40.414295209465195], [-3.7794571108477975, 40.41210124567541], [-3.7785757075482143, 40.4080260730503], [-3.776908622421266, 40.40520211875047], [-3.7764084133982436, 40.40402708946764], [-3.774373320595137, 40.40208214747892], [-3.774600529205487, 40.40031394770017]]], "srid": "EPSG:4326"}}, {"type": "Feature", "properties": {"district_id": "10", "name": "Latina"}, "geometry": {"type": "Polygon", "coordinates": [[[-3.7716237102127166, 40.35982462801782], [-3.770524754004102, 40.360620997844606], [-3.7667201396259724, 40.36409297080544], [-3.761805640771091, 40.36689599031252], [-3.762942971837999, 40.36902195081123], [-3.7618453326205863, 40.37443554804955], [-3.757877187587654, 40.37554025396722], [-3.7577507672256822, 40.376538119032574], [-3.7572418599786372, 40.37747389120216], [-3.755950211717128, 40.378552342936416], [-3.7568336187768665, 40.38045064504111], [-3.757876864084354, 40.38220509921761], [-3.759306070409526, 40.38363007298447], [-3.758649811530697, 40.38410879462047], [-3.7556319956114064, 40.383647623475134], [-3.7530374107367876, 40.38354822176817], [-3.751587450788849, 40.38415746852931], [-3.745351991150677, 40.387865017815294], [-3.7447356398112146, 40.388010696360176], [-3.743570970247324, 40.39040784785669], [-3.7428476878078873, 40.39135448226554], [-3.7389781331334624, 40.39443009011429], [-3.737113533219711, 40.396726956920816], [-3.729592360941399, 40.402431602701014], [-3.7286180106651883, 40.40288918603695], [-3.7275870590896147, 40.40387018398783], [-3.72552047267555, 40.40540434060548], [-3.724650872037138, 40.40549294212116], [-3.7247637286877873, 40.40454366966735], [-3.7227207425136193, 40.40454536480363], [-3.7226486395431686, 40.40582591379954], [-3.721822842567634, 40.40850541176741], [-3.7226111320082373, 40.41137889092994], [-3.722918456511343, 40.4120130118964], [-3.722850118962111, 40.41533165732553], [-3.7223791480532804, 40.417174968887274], [-3.737919421777519, 40.41146599540369], [-3.741853510909682, 40.40920596793532], [-3.743328791604697, 40.40956758862599], [-3.744667208291604, 40.409143848536885], [-3.750879463824307, 40.40830560960118], [-3.755689041812485, 40.40589997260355], [-3.7570580066082973, 40.40561832427196], [-3.7597552573854154, 40.40406010292764], [-3.7622749689857464, 40.40099153330564], [-3.764358797267947, 40.399401475171445], [-3.7655033960619804, 40.39910309902736], [-3.765625293531893, 40.39927436658687], [-3.767010634719782, 40.39923645803786], [-3.7692808074373145, 40.39962229894846], [-3.7706469656902333, 40.399534473328394], [-3.7738449232047926, 40.40030197649846], [-3.774600529205487, 40.40031394770017], [-3.7758184712975913, 40.400063446847874], [-3.7776056754156415, 40.39910550338978], [-3.7781712704536003, 40.39797736934683], [-3.7780506829586122, 40.39763583524492], [-3.779450836484894, 40.39694442930954], [-3.7800804062801, 40.39574828739614], [-3.7807572494816966, 40.395280656677194], [-3.781514515494742, 40.39412598875531], [-3.786852751284384, 40.3927600883669], [-3.789395218694648, 40.392337370771024], [-3.789170592270233, 40.393887564334555], [-3.793785848249652, 40.393580333181674], [-3.7964973764380225, 40.39220674326371], [-3.804284652281921, 40.392024969078726], [-3.810870852574364, 40.39279253907677], [-3.8148879538271463, 40.39399857250384], [-3.818289333024541, 40.39591783411612], [-3.8193517726088566, 40.396273382638505], [-3.819378198450082, 40.396411936314806], [-3.8204046345304694, 40.3966154784532], [-3.8222377780759946, 40.39668445300183], [-3.829005658025862, 40.396455095726196], [-3.83210732227102, 40.39590580871442], [-3.833507748646349, 40.39614438396319], [-3.834161949083862, 40.39605814174383], [-3.8334563444852, 40.39547322228048], [-3.832757401077301, 40.39374890147666], [-3.831926546014395, 40.3924086324606], [-3.8289625288628923, 40.38844908262155], [-3.8237288540268706, 40.382136974192186], [-3.823405917956792, 40.38135819804724], [-3.822767484061888, 40.38048899442339], [-3.8213707103828365, 40.3791647202794], [-3.816647789376925, 40.37400958986265], [-3.813289468917148, 40.36983273120205], [-3.810515235823156, 40.363716506304016], [-3.80693035125414, 40.36645285093579], [-3.802857845900232, 40.36333157730196], [-3.7950304876808456, 40.36177840188741], [-3.7903513353072227, 40.35964118802368], [-3.78784142195371, 40.358706040302145], [-3.784709754471985, 40.359953271268125], [-3.7815513423922003, 40.36148933811338], [-3.7803181360353775, 40.361864876382796], [-3.7734311584338185, 40.36054449772332], [-3.772353638325385, 40.35976600462381], [-3.7716237102127166, 40.35982462801782]]], "srid": "EPSG:4326"}}, {"type": "Feature", "properties": {"district_id": "11", "name": "Carabanchel"}, "geometry": {"type": "Polygon", "coordinates": [[[-3.7208914097511987, 40.3655477989149], [-3.7204372485427366, 40.36787327054969], [-3.7189595653894227, 40.38039333251116], [-3.718351680020712, 40.38289091882644], [-3.71755563759183, 40.385280837143725], [-3.712878710924582, 40.389524828488845], [-3.7079371150315965, 40.391703921207636], [-3.7067769842825666, 40.39275012167465], [-3.704640740335106, 40.39523398075495], [-3.708228801313986, 40.396109295873615], [-3.7108042366485807, 40.39701360536011], [-3.713447525866053, 40.39895924980576], [-3.714899239190444, 40.39966795629465], [-3.7164197764366236, 40.399984952533465], [-3.7193162115070404, 40.399835094470895], [-3.7203545699399987, 40.40008557495379], [-3.721708181128477, 40.40094534722649], [-3.7219487084787017, 40.401332769523385], [-3.7223977860787993, 40.40256628421052], [-3.7227207425136193, 40.40454536480363], [-3.7247637286877873, 40.40454366966735], [-3.724650872037138, 40.40549294212116], [-3.725071214978675, 40.405523553930045], [-3.725999016318802, 40.405104220946775], [-3.7286180106651883, 40.40288918603695], [-3.729592360941399, 40.402431602701014], [-3.737113533219711, 40.396726956920816], [-3.7389781331334624, 40.39443009011429], [-3.7428476878078873, 40.39135448226554], [-3.743570970247324, 40.39040784785669], [-3.7447356398112146, 40.388010696360176], [-3.745351991150677, 40.387865017815294], [-3.751587450788849, 40.38415746852931], [-3.7530374107367876, 40.38354822176817], [-3.7556319956114064, 40.383647623475134], [-3.758649811530697, 40.38410879462047], [-3.759306070409526, 40.38363007298447], [-3.757876864084354, 40.38220509921761], [-3.7568336187768665, 40.38045064504111], [-3.755950211717128, 40.378552342936416], [-3.7572418599786372, 40.37747389120216], [-3.7577507672256822, 40.376538119032574], [-3.757877187587654, 40.37554025396722], [-3.7618453326205863, 40.37443554804955], [-3.762942971837999, 40.36902195081123], [-3.761805640771091, 40.36689599031252], [-3.7667201396259724, 40.36409297080544], [-3.770524754004102, 40.360620997844606], [-3.7716237090351075, 40.359824628025684], [-3.7711486694997314, 40.359862777960274], [-3.7662475531109916, 40.35876575845341], [-3.7577072104663665, 40.357260778417775], [-3.7305570224933255, 40.363344834213855], [-3.72711480543977, 40.364542197173954], [-3.7234599544674802, 40.36537213419423], [-3.7208914097511987, 40.3655477989149]]], "srid": "EPSG:4326"}}, {"type": "Feature", "properties": {"district_id": "12", "name": "Usera"}, "geometry": {"type": "Polygon", "coordinates": [[[-3.72098487257947, 40.364785262152814], [-3.7032356319200117, 40.36355879984911], [-3.701651298340356, 40.36367165751205], [-3.6967596899182142, 40.36447319550755], [-3.6940040252883892, 40.36452884729205], [-3.692228703830084, 40.36438514913941], [-3.6890249100614483, 40.363793710965446], [-3.681924744974139, 40.36129631637721], [-3.6830816042068966, 40.36418174418531], [-3.6831481664800396, 40.36473612690272], [-3.6828752294533413, 40.36544388693321], [-3.682000842456273, 40.36616130104046], [-3.6817360555296417, 40.36680529404359], [-3.682350055800588, 40.36898036661364], [-3.682277818250587, 40.36983670535258], [-3.682462133179584, 40.370266569111365], [-3.6835235681921374, 40.371020457509466], [-3.6861617683845043, 40.371890694617726], [-3.6866329782781353, 40.37257023657737], [-3.6869817435124066, 40.37352184136936], [-3.6876784092714607, 40.37417232906525], [-3.687728948294823, 40.374846997539066], [-3.6873177904491703, 40.376147643154646], [-3.6872805275048197, 40.3767869285145], [-3.687837074866572, 40.378059650660944], [-3.6878940894141294, 40.37857270086847], [-3.688375305672502, 40.378984183228994], [-3.688829415949198, 40.37970121653058], [-3.6891852893679205, 40.381369676620466], [-3.6897460621210865, 40.38233113487353], [-3.692151256870431, 40.38410574525237], [-3.698090402457381, 40.3890960497329], [-3.702393329986288, 40.39364474501593], [-3.704640740335106, 40.39523398075495], [-3.7067769842825666, 40.39275012167465], [-3.7079371150315965, 40.391703921207636], [-3.712878710924582, 40.389524828488845], [-3.71755563759183, 40.385280837143725], [-3.718351680020712, 40.38289091882644], [-3.7189595653894227, 40.38039333251116], [-3.7204372485427366, 40.36787327054969], [-3.72098487257947, 40.364785262152814]]], "srid": "EPSG:4326"}}, {"type": "Feature", "properties": {"district_id": "13", "name": "Puente de Vallecas"}, "geometry": {"type": "Polygon", "coordinates": [[[-3.6780690752916727, 40.36068715317515], [-3.6737099874661445, 40.36102254978775], [-3.6701212766490023, 40.3616614244629], [-3.6675634933785246, 40.362523412575854], [-3.6644472880334273, 40.36414396622615], [-3.655603324058254, 40.36959038248977], [-3.654715704051874, 40.370360459052065], [-3.6544048705224457, 40.37088573702305], [-3.6535890267336875, 40.373628581853445], [-3.6527661316258846, 40.37564649474505], [-3.652361344919616, 40.376046437912166], [-3.648576004956401, 40.37652418308658], [-3.6415106625993876, 40.377954078650426], [-3.6245856607107885, 40.382092629879295], [-3.6253234348973478, 40.38323362326039], [-3.6243286626590847, 40.38501180134699], [-3.621888685420236, 40.390838566243254], [-3.6426342696319574, 40.395450502799584], [-3.6449118538738188, 40.39662578739529], [-3.6513294170435797, 40.40238552625098], [-3.6540151635074634, 40.404550414322586], [-3.654856881850848, 40.40502998802261], [-3.6561149667135724, 40.405545306477215], [-3.6573703197697935, 40.405777740885995], [-3.6652105122900114, 40.40634019639904], [-3.666784620645095, 40.40262201676723], [-3.6682764659234413, 40.39963528686472], [-3.6696266964566386, 40.39782990690773], [-3.6720434307958474, 40.395308502201516], [-3.675256652232359, 40.39326295154658], [-3.6787179200102123, 40.39049990506506], [-3.6827263394428416, 40.38465063499233], [-3.6835981757757614, 40.38400267345123], [-3.6882207629735784, 40.38297111105967], [-3.6897460621210865, 40.38233113487353], [-3.6891852893679205, 40.381369676620466], [-3.688829415949198, 40.37970121653058], [-3.688375305672502, 40.378984183228994], [-3.6878940894141294, 40.37857270086847], [-3.687837074866572, 40.378059650660944], [-3.6872805275048197, 40.3767869285145], [-3.6873177904491703, 40.376147643154646], [-3.687728948294823, 40.374846997539066], [-3.6876784092714607, 40.37417232906525], [-3.6869817435124066, 40.37352184136936], [-3.6866329782781353, 40.37257023657737], [-3.6861617683845043, 40.371890694617726], [-3.6830464732311774, 40.37078784557119], [-3.682339717902767, 40.3700258785453], [-3.682350055800588, 40.36898036661364], [-3.6817911319972807, 40.3673536323284], [-3.6817524661161194, 40.36662164446258], [-3.682000842456273, 40.36616130104046], [-3.6828752294533413, 40.36544388693321], [-3.6831447068000207, 40.36449061793827], [-3.681924744974139, 40.36129631637721], [-3.6803284993418126, 40.36082888994607], [-3.6780690752916727, 40.36068715317515]]], "srid": "EPSG:4326"}}, {"type": "Feature", "properties": {"district_id": "14", "name": "Moratalaz"}, "geometry": {"type": "Polygon", "coordinates": [[[-3.64288514202624, 40.414512796561446], [-3.6454175686932557, 40.41485574374683], [-3.647720139992336, 40.41536658915106], [-3.6540132066378863, 40.417454125519754], [-3.6586954771812175, 40.418674357774144], [-3.658971308620908, 40.4174426014337], [-3.6594420613889196, 40.416546674011464], [-3.6629167570014647, 40.41096410003141], [-3.6652105122900114, 40.40634019639904], [-3.6573703197697935, 40.405777740885995], [-3.6561149667135724, 40.405545306477215], [-3.6540151635074634, 40.404550414322586], [-3.648918245870455, 40.400301559901344], [-3.6449118538738188, 40.39662578739529], [-3.6437671616343446, 40.395939263319725], [-3.642282025884964, 40.39534650935794], [-3.629791855365516, 40.39256219097944], [-3.627291596535129, 40.39730883858877], [-3.626245964537225, 40.40131876773802], [-3.62566424568024, 40.40286600614275], [-3.6203616246237047, 40.41308331689014], [-3.622159951517068, 40.41308025398619], [-3.6242357668643, 40.41334954464606], [-3.6290337980429888, 40.414823254759824], [-3.631448723506048, 40.415186155492364], [-3.6338051359330596, 40.415126259865524], [-3.639086895113803, 40.414458677755185], [-3.64288514202624, 40.414512796561446]]], "srid": "EPSG:4326"}}, {"type": "Feature", "properties": {"district_id": "15", "name": "Ciudad Lineal"}, "geometry": {"type": "Polygon", "coordinates": [[[-3.6218869603482426, 40.41552507261554], [-3.63802938718397, 40.43788679946502], [-3.635467650211531, 40.43857719218289], [-3.639165163718471, 40.44367803367177], [-3.6404715708438067, 40.4447858664253], [-3.6464735798758374, 40.44768946664665], [-3.647442394284624, 40.448570363650056], [-3.6513070343109746, 40.45370528490043], [-3.6562838443196384, 40.45943107251604], [-3.6620419783664993, 40.46337442526856], [-3.6624871641370023, 40.46406332026883], [-3.66543942176441, 40.474819268928194], [-3.665758635425518, 40.476789952999674], [-3.6655270642629594, 40.47747263528489], [-3.6648761642969467, 40.478367273025064], [-3.661180116656415, 40.482007168711334], [-3.6593469930468125, 40.48291059327894], [-3.667211021552698, 40.48410076398215], [-3.6702682937435656, 40.48418310475738], [-3.6734614062992077, 40.48405565655839], [-3.674438393656591, 40.47778512214141], [-3.6743329495969252, 40.47611213593623], [-3.6737432490236643, 40.47413259980527], [-3.673248421828635, 40.47306241646983], [-3.6684065554547223, 40.46670425777772], [-3.6649372738984725, 40.46003035434736], [-3.663806177830872, 40.456816028874094], [-3.6628404526934735, 40.45137127869009], [-3.662155148358569, 40.44847194758281], [-3.661195053343818, 40.445670846887175], [-3.659751628258368, 40.44328429553937], [-3.659354247178918, 40.44213673668363], [-3.659301359254993, 40.43893054459731], [-3.659903757530687, 40.4351188144305], [-3.6608099648592356, 40.431421563651654], [-3.6605890408694473, 40.429457951320295], [-3.6586954771812175, 40.418674357774144], [-3.6540132066378863, 40.417454125519754], [-3.647720139992336, 40.41536658915106], [-3.6454175686932557, 40.41485574374683], [-3.64288514202624, 40.414512796561446], [-3.639086895113803, 40.414458677755185], [-3.6338051359330596, 40.415126259865524], [-3.631448723506048, 40.415186155492364], [-3.6290337980429888, 40.414823254759824], [-3.6242357668643, 40.41334954464606], [-3.622159951517068, 40.41308025398619], [-3.6203616246237047, 40.41308331689014], [-3.6218869603482426, 40.41552507261554]]], "srid": "EPSG:4326"}}, {"type": "Feature", "properties": {"district_id": "16", "name": "Hortaleza"}, "geometry": {"type": "Polygon", "coordinates": [[[-3.601900959944331, 40.50146466217725], [-3.6021153329267355, 40.50146665983768], [-3.602276395991639, 40.5012649220681], [-3.602836662902561, 40.50133413541169], [-3.6028035610461426, 40.50144749551324], [-3.6033490269318666, 40.50176249250775], [-3.605413786655304, 40.50362048667027], [-3.6059281344450627, 40.504202958288744], [-3.6062288131781393, 40.50549140673509], [-3.6066252615253447, 40.5058874869298], [-3.6093738395281507, 40.50739187135176], [-3.6110767318736903, 40.50885516862348], [-3.6123937435503417, 40.509105998937116], [-3.613432313000493, 40.50959614627317], [-3.6141443831224755, 40.51013566896646], [-3.6142647726510555, 40.510728411764944], [-3.615073973108941, 40.510959491768155], [-3.615920878970983, 40.5108976661321], [-3.6182210704458906, 40.510107658334576], [-3.6197315267734256, 40.510262107645985], [-3.6209758886570897, 40.51015217987921], [-3.621419581429575, 40.50999718091327], [-3.622277243805706, 40.509283546283925], [-3.6229443778197146, 40.50904765950523], [-3.6250714366594443, 40.50947602976743], [-3.625847571500953, 40.50938190370322], [-3.62828419073172, 40.50842012146239], [-3.631125132956541, 40.508435095335905], [-3.6321915603913517, 40.508139414891225], [-3.633149783579242, 40.50766063818238], [-3.6336471034622333, 40.50781669998198], [-3.6395544611210195, 40.507880794207345], [-3.6421054489786537, 40.50821193633776], [-3.6433659896981876, 40.50793319284662], [-3.6443433603521784, 40.50811331393274], [-3.6448411721418013, 40.50788220427545], [-3.6458478853839003, 40.508421428166855], [-3.6480999074162925, 40.51046521314363], [-3.6490343461913075, 40.51079355519954], [-3.652448383800809, 40.51112170888034], [-3.65238062057883, 40.511437585359275], [-3.6545328859388024, 40.512787769099965], [-3.6561698904750486, 40.51309714922771], [-3.6576141830105118, 40.511718854231056], [-3.658140129839525, 40.51044553148672], [-3.6583082060433134, 40.50898332395862], [-3.65816329191877, 40.505493447357495], [-3.6583921979532614, 40.50439980915894], [-3.6588268368628865, 40.503514458656475], [-3.6622671641727247, 40.49937160653619], [-3.670651133688472, 40.492507522088616], [-3.6718052822899643, 40.49124966487762], [-3.6724649318671543, 40.49006998456582], [-3.672892978684012, 40.48876471032104], [-3.6734614062992077, 40.48405565655839], [-3.6702682937435656, 40.48418310475738], [-3.667211021552698, 40.48410076398215], [-3.6593469930468125, 40.48291059327894], [-3.661180116656415, 40.482007168711334], [-3.6648761642969467, 40.478367273025064], [-3.6655270642629594, 40.47747263528489], [-3.665758635425518, 40.476789952999674], [-3.66543942176441, 40.474819268928194], [-3.6624871641370023, 40.46406332026883], [-3.6620419783664993, 40.46337442526856], [-3.6562838443196384, 40.45943107251604], [-3.6513070343109746, 40.45370528490043], [-3.6481164329553857, 40.44945281265303], [-3.6460573230058717, 40.449825693210755], [-3.637307435692998, 40.44857628466893], [-3.635733802412286, 40.448664890253994], [-3.630681033562821, 40.44939267816056], [-3.622311542189627, 40.44967352289092], [-3.6077572857662217, 40.449670280567226], [-3.604488316916572, 40.45176522157889], [-3.6051812300125254, 40.45258899309576], [-3.606627630910573, 40.45349905453807], [-3.6123374571459888, 40.45528677547918], [-3.620926647312233, 40.460141709341606], [-3.622751191238127, 40.461846125992444], [-3.627971314891707, 40.46848211866141], [-3.6244196851180575, 40.46870493162744], [-3.6246757233561704, 40.46969461305517], [-3.624649253495243, 40.47034119662081], [-3.62436692114133, 40.47113027472122], [-3.623849511826071, 40.47181697096345], [-3.6242728197722207, 40.47289979362914], [-3.624522755214206, 40.473013134936096], [-3.6247394766764756, 40.47340832274371], [-3.625111977171274, 40.47453329032673], [-3.6257978509867317, 40.47525229503152], [-3.62590630353228, 40.476086019888655], [-3.625685650077081, 40.47633150372558], [-3.625882183254067, 40.47657012156661], [-3.625747268493674, 40.4770660338602], [-3.625653402595406, 40.481570087705066], [-3.625833206767527, 40.48222524704432], [-3.6182001195262794, 40.48226850394882], [-3.6155410167508153, 40.48495614109142], [-3.6017115253322243, 40.48501785586672], [-3.6018660233568736, 40.489730919110315], [-3.6017648751238927, 40.49460691229675], [-3.601900959944331, 40.50146466217725]]], "srid": "EPSG:4326"}}, {"type": "Feature", "properties": {"district_id": "17", "name": "Villaverde"}, "geometry": {"type": "Polygon", "coordinates": [[[-3.6575136350194035, 40.328925690271426], [-3.657757788610751, 40.33056050273403], [-3.6583805123899076, 40.331867775265394], [-3.658640340026808, 40.33338859533788], [-3.6588505506249187, 40.33382633285318], [-3.660534483329131, 40.335406876727966], [-3.6613140946758875, 40.33648379847434], [-3.6614291940641333, 40.33759244227469], [-3.6616921238054774, 40.338085737764935], [-3.662959477398221, 40.33917582263554], [-3.663087600034123, 40.34081310274604], [-3.664337816134691, 40.34347205013399], [-3.6652370500848446, 40.34410274510578], [-3.6685241640886472, 40.34480207531408], [-3.669368068626513, 40.34523613359361], [-3.6694411073714193, 40.34550306139346], [-3.6691244643956837, 40.34618124389979], [-3.6690297651249972, 40.34741877923304], [-3.6697278138382337, 40.34918643268638], [-3.6725098715878284, 40.35020379938431], [-3.6731148567654404, 40.35062360040989], [-3.673611292711747, 40.351875314873354], [-3.6738553851996607, 40.35301402533871], [-3.6741585110008548, 40.35329992459255], [-3.676175586898843, 40.3539835883063], [-3.6766613112611553, 40.354947436213315], [-3.677413687236221, 40.35713911529121], [-3.678054765857238, 40.35762996859091], [-3.6793519652892646, 40.358214271113724], [-3.6806823059556937, 40.359537219576445], [-3.6813193826819157, 40.35991698185229], [-3.681924744974139, 40.36129631637721], [-3.6890249100614483, 40.363793710965446], [-3.692228703830084, 40.36438514913941], [-3.6940040252883892, 40.36452884729205], [-3.6967596899182142, 40.36447319550755], [-3.701651298340356, 40.36367165751205], [-3.7032356319200117, 40.36355879984911], [-3.72098487257947, 40.364785262152814], [-3.724926339963099, 40.33498616929483], [-3.723665620335949, 40.33355276517531], [-3.7201687960564165, 40.33080684991096], [-3.714445432861521, 40.328058637025435], [-3.7129078574467993, 40.325628509279824], [-3.712542792974807, 40.3234944933604], [-3.7100777490914254, 40.32340107167988], [-3.70312487778781, 40.3221212112129], [-3.699625391288747, 40.322346821677385], [-3.6961615511048937, 40.32221751096644], [-3.6929988940485026, 40.3200528978381], [-3.6912666262565623, 40.320933067689865], [-3.689862258474973, 40.32136258340929], [-3.6878248914282996, 40.32191298519275], [-3.685066973707569, 40.32225636403489], [-3.6833663034230235, 40.32333026576753], [-3.682439989077593, 40.323590754817474], [-3.6818174747270405, 40.32395590242363], [-3.6809567159596654, 40.3246043992625], [-3.680507891337185, 40.325619969061535], [-3.6792143371907136, 40.32633101463838], [-3.67800052415787, 40.32645782886216], [-3.675924805703997, 40.3260769470181], [-3.6742853458509215, 40.32606658151458], [-3.67045338505223, 40.32500111925504], [-3.6696500188073995, 40.3250243992516], [-3.668860796076391, 40.32531862449005], [-3.6673150394674554, 40.326231442648535], [-3.666726306879229, 40.3271400000583], [-3.6653342593505536, 40.32803658273191], [-3.664951575815689, 40.328395383204665], [-3.665046667366485, 40.3284575756328], [-3.6638337342348755, 40.32903443446779], [-3.6631833782970333, 40.32889056917919], [-3.6611314055142365, 40.32770364874978], [-3.6598889787848834, 40.32775257819494], [-3.65991200065802, 40.327861878823036], [-3.6575136350194035, 40.328925690271426]]], "srid": "EPSG:4326"}}, {"type": "Feature", "properties": {"district_id": "18", "name": "Villa de Vallecas"}, "geometry": {"type": "Polygon", "coordinates": [[[-3.5652235661977634, 40.36007599265716], [-3.567410473697357, 40.360600715296194], [-3.570171439753965, 40.36167827747427], [-3.5776786197010977, 40.366610368792216], [-3.579295279347316, 40.36709448298349], [-3.5833207229362207, 40.36731149548249], [-3.584893213608372, 40.367611927670644], [-3.5990232566121834, 40.37455634123301], [-3.6000116296641207, 40.37552538527821], [-3.600701208843008, 40.37671173556328], [-3.5999758173182843, 40.3772325183572], [-3.599011431790959, 40.37885180923441], [-3.597808669408215, 40.37965773044667], [-3.599500207960051, 40.38232930364922], [-3.600551976205994, 40.38252458312184], [-3.601041903032009, 40.38287781529592], [-3.601127751829994, 40.38340449381522], [-3.6008252303119215, 40.38392417710091], [-3.600861228911706, 40.38415723714798], [-3.601366734888161, 40.38512210621753], [-3.6023364847721897, 40.38619681558286], [-3.6037414927427, 40.38666464841254], [-3.604136559514932, 40.38662799548669], [-3.605260342322837, 40.38597428764622], [-3.6057606928733805, 40.38649705601529], [-3.606480669101399, 40.38625052882942], [-3.6086583908415726, 40.38758283800866], [-3.6108895245434853, 40.388418720514586], [-3.621888685420236, 40.390838566243254], [-3.6243286626590847, 40.38501180134699], [-3.6253234348973478, 40.38323362326039], [-3.6245856607107885, 40.382092629879295], [-3.6415106625993876, 40.377954078650426], [-3.648576004956401, 40.37652418308658], [-3.652361344919616, 40.376046437912166], [-3.6527661316258846, 40.37564649474505], [-3.6535890267336875, 40.373628581853445], [-3.6544048705224457, 40.37088573702305], [-3.654715704051874, 40.370360459052065], [-3.655603324058254, 40.36959038248977], [-3.6644472880334273, 40.36414396622615], [-3.6666960798313175, 40.36292994622761], [-3.668246098123662, 40.3622470404384], [-3.6701212766490023, 40.3616614244629], [-3.6744672659568094, 40.3609381528191], [-3.6793501759644087, 40.360702145246904], [-3.681924744974139, 40.36129631637721], [-3.6813193826819157, 40.35991698185229], [-3.6806823059556937, 40.359537219576445], [-3.6793519652892646, 40.358214271113724], [-3.678054765857238, 40.35762996859091], [-3.677413687236221, 40.35713911529121], [-3.6766613112611553, 40.354947436213315], [-3.676175586898843, 40.3539835883063], [-3.6741585110008548, 40.35329992459255], [-3.6738553851996607, 40.35301402533871], [-3.673611292711747, 40.351875314873354], [-3.6731148567654404, 40.35062360040989], [-3.6725098715878284, 40.35020379938431], [-3.6697278138382337, 40.34918643268638], [-3.6690297651249972, 40.34741877923304], [-3.6691244643956837, 40.34618124389979], [-3.6694411073714193, 40.34550306139346], [-3.669368068626513, 40.34523613359361], [-3.6685241640886472, 40.34480207531408], [-3.6652370500848446, 40.34410274510578], [-3.664337816134691, 40.34347205013399], [-3.663087600034123, 40.34081310274604], [-3.662959477398221, 40.33917582263554], [-3.6616921238054774, 40.338085737764935], [-3.6614291940641333, 40.33759244227469], [-3.6613140946758875, 40.33648379847434], [-3.660534483329131, 40.335406876727966], [-3.6588505506249187, 40.33382633285318], [-3.658640340026808, 40.33338859533788], [-3.6583805123899076, 40.331867775265394], [-3.657757788610751, 40.33056050273403], [-3.6575136350194035, 40.328925690271426], [-3.6502764409465884, 40.33241159383519], [-3.6500184461913103, 40.332275862813155], [-3.649513016024275, 40.33265677349057], [-3.6491559919329566, 40.33341564317578], [-3.646900272570419, 40.33204464742121], [-3.644535030284835, 40.330861904183905], [-3.6430320860010994, 40.329263942172425], [-3.64142439386368, 40.32831330944756], [-3.6403703104109972, 40.327905816628274], [-3.6359959241402495, 40.325067756631285], [-3.634965730518073, 40.32417246676457], [-3.6351607328082176, 40.32402682187858], [-3.6329614874552383, 40.32234712393159], [-3.6302109821801634, 40.32067414031439], [-3.627399922531627, 40.31959318116861], [-3.6259919248689525, 40.319224575118405], [-3.6246924894343415, 40.32042677470305], [-3.6235340585576594, 40.319849756340616], [-3.620008102635545, 40.31911756997758], [-3.615965042774604, 40.31776188601261], [-3.6138773177965247, 40.315589309127255], [-3.611150858409883, 40.31431287514221], [-3.6081204924533803, 40.3136647419775], [-3.598258633199113, 40.312064756642584], [-3.5874354127817747, 40.312790570247664], [-3.5806560252127473, 40.313790510181136], [-3.577968238468978, 40.31389132873541], [-3.5761262321274923, 40.314885744498056], [-3.577795797284066, 40.314648240782184], [-3.5792823121678716, 40.315868057275665], [-3.5818857089322256, 40.31588150748947], [-3.582408856337498, 40.31614140933253], [-3.583817072083632, 40.315813058053834], [-3.585073851752738, 40.318355245195995], [-3.585070803016719, 40.3204163852558], [-3.584362971235407, 40.32256396374825], [-3.58248714669442, 40.32625581874459], [-3.579519624016349, 40.32794991181161], [-3.5767630105606503, 40.33025135935697], [-3.57528141232135, 40.33186208322172], [-3.5727376794095664, 40.33366020710698], [-3.5718824554693787, 40.33461516666733], [-3.5699454295837283, 40.337632241254866], [-3.5682459589582454, 40.34090388920555], [-3.5653599928380646, 40.344379050006395], [-3.5621565697121436, 40.34709439964678], [-3.5607411528076267, 40.349176695516846], [-3.558913706896789, 40.35027003870696], [-3.5576903019445267, 40.352666783474305], [-3.5566355571389336, 40.35309870240319], [-3.555121361074864, 40.35405911347376], [-3.556166968283254, 40.354494010285755], [-3.5570114243335285, 40.355093561489916], [-3.5542510156896983, 40.356654323892954], [-3.555272701308664, 40.3573385342747], [-3.556851108205672, 40.35793850535256], [-3.5612704958981616, 40.35918475595686], [-3.5652235661977634, 40.36007599265716]]], "srid": "EPSG:4326"}}, {"type": "Feature", "properties": {"district_id": "19", "name": "Vicálvaro"}, "geometry": {"type": "Polygon", "coordinates": [[[-3.5774830044994634, 40.42601309705487], [-3.5776534505361797, 40.42604247906996], [-3.5781121260139965, 40.42525382300603], [-3.5794135960019564, 40.42376692727655], [-3.582180580158846, 40.419632279566635], [-3.5828772991178113, 40.4181227556585], [-3.5830886831667743, 40.41590554255144], [-3.5837806315252347, 40.41460407048265], [-3.5880002145774164, 40.409636783678245], [-3.588619152485107, 40.40843222304931], [-3.5958580058571976, 40.41055917187859], [-3.601931465252921, 40.411727080861105], [-3.6073112517789108, 40.41248423072137], [-3.610289722546234, 40.41316130675889], [-3.610801474750517, 40.41794494386145], [-3.613910936630118, 40.41693355124746], [-3.618578925448706, 40.415000338276386], [-3.6194933766509636, 40.414246348798706], [-3.6203616246237047, 40.41308331689014], [-3.6254476784624425, 40.40331203208831], [-3.626245964537225, 40.40131876773802], [-3.627291596535129, 40.39730883858877], [-3.629791855365516, 40.39256219097944], [-3.6108895245434853, 40.388418720514586], [-3.6086583908415726, 40.38758283800866], [-3.606480669101399, 40.38625052882942], [-3.6057606928733805, 40.38649705601529], [-3.605260342322837, 40.38597428764622], [-3.604136559514932, 40.38662799548669], [-3.6037414927427, 40.38666464841254], [-3.6023364847721897, 40.38619681558286], [-3.601366734888161, 40.38512210621753], [-3.600861228911706, 40.38415723714798], [-3.6008252303119215, 40.38392417710091], [-3.601127751829994, 40.38340449381522], [-3.601041903032009, 40.38287781529592], [-3.600551976205994, 40.38252458312184], [-3.599500207960051, 40.38232930364922], [-3.597808669408215, 40.37965773044667], [-3.599011431790959, 40.37885180923441], [-3.5999758173182843, 40.3772325183572], [-3.600701208843008, 40.37671173556328], [-3.6000116296641207, 40.37552538527821], [-3.5990232566121834, 40.37455634123301], [-3.584893213608372, 40.367611927670644], [-3.5833207229362207, 40.36731149548249], [-3.579295279347316, 40.36709448298349], [-3.5776786197010977, 40.366610368792216], [-3.570171439753965, 40.36167827747427], [-3.567410473697357, 40.360600715296194], [-3.5652235661977634, 40.36007599265716], [-3.561383121810018, 40.36320323089742], [-3.558232135470449, 40.36645941244956], [-3.556173893372034, 40.36918995372727], [-3.5525453370585227, 40.374851924317895], [-3.550025867838389, 40.37789386965481], [-3.5409772815529728, 40.38644194932296], [-3.538147729064058, 40.388732207618304], [-3.5336339315213996, 40.39162514729169], [-3.53286081298824, 40.39169005746389], [-3.5320846023767944, 40.39142397500883], [-3.529151058520741, 40.38938492466068], [-3.526890645441939, 40.389794677812375], [-3.5243424748666103, 40.39084272588842], [-3.522589475146369, 40.39186515630473], [-3.5204067895270583, 40.39210217687047], [-3.5203173934801772, 40.39377746996592], [-3.5195978645563617, 40.3978527406519], [-3.518559543164851, 40.40011094850915], [-3.518131476984004, 40.4019591256415], [-3.5182027084512644, 40.4031276021351], [-3.518941560524013, 40.40454916794697], [-3.5191540671860544, 40.405377204454474], [-3.5193017855971003, 40.406995124822785], [-3.519156554957458, 40.4087752331476], [-3.519913011113768, 40.40993033193492], [-3.5197786996733655, 40.40998255616093], [-3.5203039286123654, 40.410692636333714], [-3.52078663522484, 40.41183189817805], [-3.52224523095875, 40.413819372162074], [-3.524442818780647, 40.41528728594733], [-3.5251842724228664, 40.416341642818836], [-3.527613154428441, 40.41764744315707], [-3.5311903466928904, 40.420084228876995], [-3.5302264444629308, 40.41471470032861], [-3.5328026982270306, 40.41411359484604], [-3.5351671791389263, 40.41441452350292], [-3.5356295268788682, 40.413150937394185], [-3.536124046519913, 40.41290907737633], [-3.5362129329379037, 40.41251777767875], [-3.5375726701820813, 40.41247353539734], [-3.537876080908766, 40.41223969146791], [-3.5379039464437296, 40.411742258859746], [-3.5382904235632395, 40.41142706079562], [-3.5396659613683767, 40.411591728687696], [-3.539768012143177, 40.41049225425552], [-3.5412737920462405, 40.410718467659464], [-3.5434829096986444, 40.41131085026341], [-3.544973077433781, 40.41142687512419], [-3.5492836256958746, 40.41232401300831], [-3.5504884871518665, 40.41194189732618], [-3.5534026613551126, 40.41168803050587], [-3.555505379390218, 40.41202698723938], [-3.5587151542139788, 40.41307374338992], [-3.564125383809338, 40.41353224379333], [-3.568406002370196, 40.412945571382444], [-3.5709164386409955, 40.411962058105075], [-3.572900492851422, 40.411768030890286], [-3.577640345584544, 40.413662559508325], [-3.578187058452964, 40.414841015684786], [-3.5780557338272994, 40.41499005099928], [-3.579531749393284, 40.41733816404012], [-3.5776487477716525, 40.42024681479776], [-3.576969727681094, 40.42162137802291], [-3.576278291525389, 40.423893304782545], [-3.5752540548723197, 40.42557408564384], [-3.5774830044994634, 40.42601309705487]]], "srid": "EPSG:4326"}}, {"type": "Feature", "properties": {"district_id": "20", "name": "San Blas - Canillejas"}, "geometry": {"type": "Polygon", "coordinates": [[[-3.5313425413819703, 40.44708284631189], [-3.5330909546775056, 40.44664430857939], [-3.534421014546801, 40.4465712490608], [-3.5376189009971784, 40.44730575244402], [-3.5556169385682894, 40.44933479610805], [-3.565693054706363, 40.44966462374968], [-3.599596672746877, 40.45016842683549], [-3.6058453650211835, 40.44965979604141], [-3.622311542189627, 40.44967352289092], [-3.630681033562821, 40.44939267816056], [-3.635733802412286, 40.448664890253994], [-3.637307435692998, 40.44857628466893], [-3.6460573230058717, 40.449825693210755], [-3.6481164329553857, 40.44945281265303], [-3.647442394284624, 40.448570363650056], [-3.6464735798758374, 40.44768946664665], [-3.6404715708438067, 40.4447858664253], [-3.639165163718471, 40.44367803367177], [-3.635467650211531, 40.43857719218289], [-3.63802938718397, 40.43788679946502], [-3.6243000259517872, 40.41895419761624], [-3.621360210597176, 40.41478140511232], [-3.6203616246237047, 40.41308331689014], [-3.6194933766509636, 40.414246348798706], [-3.618036921759337, 40.415303953264996], [-3.613910936630118, 40.41693355124746], [-3.610801474750517, 40.41794494386145], [-3.610289722546234, 40.41316130675889], [-3.6073112517789108, 40.41248423072137], [-3.601931465252921, 40.411727080861105], [-3.5958580058571976, 40.41055917187859], [-3.588619152485107, 40.40843222304931], [-3.5880002145774164, 40.409636783678245], [-3.5837806315252347, 40.41460407048265], [-3.5830886831667743, 40.41590554255144], [-3.5828772991178113, 40.4181227556585], [-3.582180580158846, 40.419632279566635], [-3.5794135960019564, 40.42376692727655], [-3.5781121260139965, 40.42525382300603], [-3.5776534505361797, 40.42604247906996], [-3.5774830044994634, 40.42601309705487], [-3.576525665525741, 40.42870923231889], [-3.576326106429484, 40.42968032372188], [-3.576974859346539, 40.42983529588524], [-3.5772649510588415, 40.43051637666886], [-3.579136833503383, 40.43315624889706], [-3.5791242575041444, 40.433624206931185], [-3.575109172730305, 40.43410165348305], [-3.575256648630019, 40.43501918622259], [-3.5759457265195667, 40.43674278734815], [-3.5738021080389615, 40.437672092339575], [-3.56854810574504, 40.43621095518756], [-3.5663222379376527, 40.437434358138454], [-3.564123805423132, 40.438061295162115], [-3.5616679864796614, 40.43794258472519], [-3.560279119367775, 40.43809435098965], [-3.5591041329356408, 40.43844597088057], [-3.5522990238350074, 40.44154166707736], [-3.5504218768830773, 40.44198032539861], [-3.545210008405914, 40.44261621688363], [-3.5413550286749227, 40.44362654501708], [-3.5408287353918126, 40.444633916036864], [-3.537974538592254, 40.44431173075153], [-3.538409450058975, 40.4450108042607], [-3.535584997286571, 40.44470793505799], [-3.5349910050424196, 40.44495689462632], [-3.535495732544631, 40.446478451866], [-3.5340548828819833, 40.446245181318275], [-3.533356137148802, 40.446312362505886], [-3.5312846744597635, 40.44681646983263], [-3.5311484455318145, 40.4468729537157], [-3.5313425413819703, 40.44708284631189]]], "srid": "EPSG:4326"}}, {"type": "Feature", "properties": {"district_id": "21", "name": "Barajas"}, "geometry": {"type": "Polygon", "coordinates": [[[-3.5313425425611578, 40.447082846306465], [-3.5321568841367066, 40.44811067981247], [-3.5334463964164957, 40.450575045420216], [-3.5344408486093903, 40.45180651245343], [-3.534552852418378, 40.452398793520324], [-3.5331635413299285, 40.45403403028829], [-3.5321566029995752, 40.45466208438951], [-3.531152286909527, 40.4547261478243], [-3.529895548086713, 40.45433459844041], [-3.5284443155518255, 40.4544060861917], [-3.527193490142874, 40.45476943994756], [-3.5264893993206186, 40.455373545042995], [-3.5265613192764977, 40.45597592519457], [-3.5270244168894878, 40.45668013344711], [-3.5290273595130843, 40.458377329856134], [-3.5295051971539584, 40.46005353851181], [-3.52955421882272, 40.46073980505649], [-3.5286895598546555, 40.4635888133576], [-3.527792136718628, 40.46482083727444], [-3.5263350668614666, 40.46614008128558], [-3.525189502917588, 40.467478616095384], [-3.5249638647716446, 40.468194055754005], [-3.5249710174063824, 40.469113847767495], [-3.5257941752080186, 40.46984345486022], [-3.526951213176416, 40.47042469197384], [-3.5308401543015857, 40.47128173351534], [-3.5328785286961613, 40.4714219277686], [-3.533948339424033, 40.47200079213261], [-3.5343451694652925, 40.47295302245249], [-3.534882956310675, 40.47993074590567], [-3.535807326829004, 40.48223278894057], [-3.536828826793281, 40.483536174308526], [-3.537282819149065, 40.48439263081393], [-3.5369474706100617, 40.48643562999248], [-3.537549552748574, 40.486920226935986], [-3.54098943969145, 40.48858710926954], [-3.541261414494873, 40.49160115646726], [-3.541792346265175, 40.49276714477135], [-3.5417781745090244, 40.494087932280785], [-3.5441640962948555, 40.49567765464524], [-3.546856082677278, 40.49672264066324], [-3.550237404998988, 40.497775105199125], [-3.5524082995136093, 40.49900711925381], [-3.5533050357479734, 40.49999292988322], [-3.553605506474963, 40.50194825100334], [-3.5534055332823473, 40.502460016368744], [-3.555212714093174, 40.50315443819907], [-3.5549465385957655, 40.505458863365504], [-3.555128749804673, 40.50856690367851], [-3.554258967579333, 40.51133628624503], [-3.558383306676114, 40.511256215202], [-3.5616679832210316, 40.51068664818656], [-3.5617545263829196, 40.51115685796284], [-3.5649957693694287, 40.51205623151457], [-3.5720483801762475, 40.51240468764726], [-3.5758796281944947, 40.51041382099204], [-3.577950868897945, 40.51037062228869], [-3.582904248200601, 40.50845697911191], [-3.58471605777104, 40.506720285813], [-3.5868300535075286, 40.50537914908993], [-3.589119979168282, 40.50451536594305], [-3.5932681048636645, 40.50140651789432], [-3.5938445212627266, 40.5014544020093], [-3.594818045211439, 40.501172832478595], [-3.5955782492015125, 40.50132568178101], [-3.5967076116539514, 40.5011847344071], [-3.598293530024799, 40.50129096816496], [-3.599419519812774, 40.50170046079816], [-3.5998178503978733, 40.50163623682389], [-3.600166220451859, 40.50179299090835], [-3.6013421526717897, 40.5017130180893], [-3.601900959944331, 40.50146466217725], [-3.6017648751238927, 40.49460691229675], [-3.6018660233568736, 40.489730919110315], [-3.6017115253322243, 40.48501785586672], [-3.6155410167508153, 40.48495614109142], [-3.6182001195262794, 40.48226850394882], [-3.625833206767527, 40.48222524704432], [-3.625653402595406, 40.481570087705066], [-3.625747268493674, 40.4770660338602], [-3.625882183254067, 40.47657012156661], [-3.625685650077081, 40.47633150372558], [-3.62590630353228, 40.476086019888655], [-3.6257978509867317, 40.47525229503152], [-3.625111977171274, 40.47453329032673], [-3.6247394766764756, 40.47340832274371], [-3.624522755214206, 40.473013134936096], [-3.6242728197722207, 40.47289979362914], [-3.623849511826071, 40.47181697096345], [-3.62436692114133, 40.47113027472122], [-3.624649253495243, 40.47034119662081], [-3.6246757233561704, 40.46969461305517], [-3.6244196851180575, 40.46870493162744], [-3.627971314891707, 40.46848211866141], [-3.622751191238127, 40.461846125992444], [-3.620926647312233, 40.460141709341606], [-3.6123374571459888, 40.45528677547918], [-3.606627630910573, 40.45349905453807], [-3.6051812300125254, 40.45258899309576], [-3.604488316916572, 40.45176522157889], [-3.6077572857662217, 40.449670280567226], [-3.605456158346331, 40.449680929842636], [-3.601023326166469, 40.450124099056026], [-3.5970933648256445, 40.450162883386064], [-3.5583072958149926, 40.449494232341316], [-3.553459781209192, 40.44911475084756], [-3.5376189009971784, 40.44730575244402], [-3.534421014546801, 40.4465712490608], [-3.5330909546775056, 40.44664430857939], [-3.5313425425611578, 40.447082846306465]]], "srid": "EPSG:4326"}}]}